Ephemeris (1.0) by Terry R. McConnell

This is a basic commmand line program for calculating the ephemeris of a 
satellite of either the sun or the earth. Sets of orbital elements for 
significant objects are built-in, and others can be entered by means of
a dialogue. 

The command

make ephemeris

in this directory will build the program. Do ephemeris -h for usage 
information. 

ephemeris -d

while provide a list of built-in orbits

Orbits can be elliptical, parabolic, or hyperbolic. For example, the
command 

ephemeris -u 13 8/25/17 0:00

produces the output shown, a 1 month ephemeris of Oumuama (hyperbolic visitor
from instellar space) including its perihelion passage on September 9, 2017.

			Ephemeris (1.0)

Ephemeris for Oumuamua orbit epoch 0h UTC 11/22/2017

Local Date  JD       C.Long  C. Lat    R.A.(h m s)    Declination
-----------------------------------------------------------------
08/25/17 2457990.5   174.61  10.90     11 57 46.59    12  7 55.16 
08/26/17 2457991.5   174.33  9.68      11 54 45.02    11  7 27.31 
08/27/17 2457992.5   174.04  8.44      11 51 38.35    10  6 46.54 
08/28/17 2457993.5   173.71  7.20      11 48 25.69     9  5 53.69 
08/29/17 2457994.5   173.37  5.93      11 45  6.08     8  4 50.26 
08/30/17 2457995.5   172.98  4.66      11 41 38.44     7  3 38.79 
08/31/17 2457996.5   172.56  3.36      11 38  1.61     6  2 23.30 
09/01/17 2457997.5   172.10  2.05      11 34 14.30     5  1 10.02 
09/02/17 2457998.5   171.59  0.73      11 30 15.20     4  0  8.31 
09/03/17 2457999.5   171.02  -0.62     11 26  2.98     2 59 32.01 
09/04/17 2458000.5   170.40  -1.97     11 21 36.46     1 59 41.08 
09/05/17 2458001.5   169.70  -3.33     11 16 54.85     1  1  3.51 
09/06/17 2458002.5   168.93  -4.68     11 11 58.10     0  4 16.93 
09/07/17 2458003.5   168.09  -6.02     11  6 47.31     0 49 50.99 
09/08/17 2458004.5   167.17  -7.31     11  1 25.27    -1 40 25.23 
09/09/17 2458005.5   166.20  -8.55     10 55 56.52    -2 26 30.53 
09/10/17 2458006.5   165.18  -9.71     10 50 27.02    -3  7 22.27 
09/11/17 2458007.5   164.15  -10.77    10 45  3.04    -3 42 37.04 
09/12/17 2458008.5   163.11  -11.73    10 39 49.93    -4 12 17.31 
09/13/17 2458009.5   162.10  -12.58    10 34 51.23    -4 36 47.81 
09/14/17 2458010.5   161.11  -13.33    10 30  8.47    -4 56 46.83 
09/15/17 2458011.5   160.16  -14.00    10 25 41.53    -5 12 57.09 
09/16/17 2458012.5   159.24  -14.59    10 21 29.16    -5 25 59.49 
09/17/17 2458013.5   158.36  -15.12    10 17 29.51    -5 36 29.93 
09/18/17 2458014.5   157.50  -15.61    10 13 40.40    -5 44 58.37 
09/19/17 2458015.5   156.66  -16.05    10  9 59.60    -5 51 49.16 
09/20/17 2458016.5   155.83  -16.46    10  6 24.83    -5 57 21.76 
09/21/17 2458017.5   155.01  -16.85    10  2 53.88    -6  1 51.68 
09/22/17 2458018.5   154.18  -17.22     9 59 24.52    -6  5 31.20 
09/23/17 2458019.5   153.35  -17.58     9 55 54.53    -6  8 30.07 
09/24/17 2458020.5   152.50  -17.93     9 52 21.59    -6 10 56.02 

The command

ephemeris -V -u 13 -d

produces the following information on the orbit of Umuamua:

Elements of 1I/'Oumuamua (A/2017 U1) orbit epoch 0h UTC 11/22/2017
(Reference plane = ecliptic, origin = Sun)

t	Epoch (JD)		2458080.5
q	periapsis dist.		3.82838e+07 km	 0.255912 AU
e	Eccentricity		 1.201134
i	Inclination		122.742 deg
Omega	Longitude asc. node	24.5969 deg
w	Argument of perigee	241.811 deg
M	Mean anomaly		51.1576 deg (at the epoch)
n	mean motion		0.686747 deg/day


Other Orbital Parameters

b	Semi-minor axis		2.54731e+07 km	 0.170277 AU
p	Parameter		1.69491e+07 km	 0.113298 AU (Semi-latus rectum)
T	Periapsis Time		74.4927 days (nearest time) 
h	Energy			690.183 J/kg (ie. per kg of body)
|L|	Ang. Momentum		669211 km^2/sec (per kg)
v	True Anomaly		126.938 deg
wtilde	long. of periapsis	266.407 deg.
L	Mean long.		317.565 deg. (at epoch)
